VSP RF A1               
1 59135U 24043AP  26066.03073316  .00000577  00000+0  25199-4 0  9997
2 59135  97.5247 201.5379 0009431 234.6315 125.4042 15.26179596111403
STARLINK-33620          
1 63069U 25035T   26068.19638544  .00035094  00000+0  12783-2 0  9994
2 63069  43.0016 149.9253 0002195 276.6389  83.4213 15.27589414 59642
